{"fetched_at":"2026-03-29T16:36:15Z","count":15609,"tles":[{"name":"STARLINK-33989","line1":"1 63929U 25098D   26087.79889818 -.00000774  00000+0 -57051-4 0  9995","line2":"2 63929  70.0012 226.3215 0003092 271.0672  89.0133 14.98333576 49434","category":"Starlink"}]}